0 FENGYUN 1C DEB
1 31257U 99025BMP 13284.37736032  .00002542  00000-0  18711-2 0  3056
2 31257 098.7138 143.3240 0135666 289.2759 069.4062 13.92170573336357
0 FENGYUN 1C DEB
1 31257U 99025BMP 13285.38352412  .00002570  00000-0  18933-2 0  3062
2 31257 098.7180 144.2666 0134512 284.8292 073.8473 13.92176117336498
0 FENGYUN 1C DEB
1 31257U 99025BMP 13287.39584500  .00002611  00000-0  19219-2 0  3075
2 31257 098.7178 146.1578 0135168 279.4340 079.1784 13.92187746336775
0 FENGYUN 1C DEB
1 31257U 99025BMP 13292.42660727  .00003050  00000-0  22357-2 0  3087
2 31257 098.7178 150.8855 0136068 265.6747 093.0883 13.92225105337478
0 FENGYUN 1C DEB
1 31257U 99025BMP 13294.43883487  .00003345  00000-0  24659-2 0  3095
2 31257 098.7164 152.7976 0129355 263.7773 094.7256 13.92241569337752
